0 FENGYUN 1C DEB
1 32419U 99025DAF 13281.44045434  .00000167  00000-0  90250-4 0  1904
2 32419 097.9396 351.7621 0303754 227.5441 129.9606 14.02296587320750
0 FENGYUN 1C DEB
1 32419U 99025DAF 13283.43836197  .00000169  00000-0  90738-4 0  1913
2 32419 097.9388 353.5070 0303821 221.8249 135.9362 14.02297465321031
0 FENGYUN 1C DEB
1 32419U 99025DAF 13285.43627060  .00000159  00000-0  86487-4 0  1928
2 32419 097.9385 355.2473 0303530 216.1545 141.8690 14.02298235321314
0 FENGYUN 1C DEB
1 32419U 99025DAF 13287.43418500  .00000161  00000-0  87058-4 0  1936
2 32419 097.9396 356.9959 0303558 210.4075 147.9190 14.02299025321598
0 FENGYUN 1C DEB
1 32419U 99025DAF 13289.00397545  .00000162  00000-0  87213-4 0  1941
2 32419 097.9390 358.3663 0303766 205.8198 152.7569 14.02299692321814
0 FENGYUN 1C DEB
1 32419U 99025DAF 13290.43105803  .00000198  00000-0  10306-3 0  1952
2 32419 097.9363 359.6071 0303174 201.9060 156.8970 14.02301159322015
0 FENGYUN 1C DEB
1 32419U 99025DAF 13292.99980547  .00000251  00000-0  12600-3 0  1961
2 32419 097.9376 001.8538 0303589 194.4805 164.7655 14.02303548322377
0 FENGYUN 1C DEB
1 32419U 99025DAF 13294.42688167  .00000332  00000-0  16071-3 0  1971
2 32419 097.9376 003.0978 0303763 190.5111 168.9671 14.02305926322578
